H1 CPF  1  DGF 2022 11 03 10  8071 larets     NONE      
H2   304206 5557    27944 2022 06 01 00 00 00 2022 06 08 00 00 00    30 1 1  0 0 0
H5  0.0650
H9
10 0 59732  43200.000000  0       6033094.250       3520582.256      -1105286.329
10 0 59732  43230.000000  0       6023991.647       3460012.828      -1324732.179
10 0 59732  43260.000000  0       6008529.630       3396000.928      -1542829.621
10 0 59732  43290.000000  0       5986709.549       3328639.386      -1759356.809
10 0 59732  43320.000000  0       5958539.621       3258024.400      -1974093.548
10 0 59732  43350.000000  0       5924034.930       3184255.410      -2186821.520
10 0 59732  43380.000000  0       5883217.422       3107434.963      -2397324.503
10 0 59732  43410.000000  0       5836115.895       3027668.577      -2605388.598
10 0 59732  43440.000000  0       5782765.973       2945064.596      -2810802.448
10 0 59732  43470.000000  0       5723210.082       2859734.056      -3013357.447
10 0 59732  43500.000000  0       5657497.409       2771790.533      -3212847.958
10 0 59732  43530.000000  0       5585683.865       2681350.000      -3409071.519
10 0 59732  43560.000000  0       5507832.030       2588530.676      -3601829.050
10 0 59732  43590.000000  0       5424011.096       2493452.877      -3790925.059
10 0 59732  43620.000000  0       5334296.798       2396238.855      -3976167.839
10 0 59732  43650.000000  0       5238771.331       2297012.651      -4157369.661
10 0 59732  43680.000000  0       5137523.274       2195899.930      -4334346.956
10 0 59732  43710.000000  0       5030647.492       2093027.827      -4506920.495
10 0 59732  43740.000000  0       4918245.053       1988524.792      -4674915.565
10 0 59732  43770.000000  0       4800423.121       1882520.431      -4838162.141
10 0 59732  43800.000000  0       4677294.853       1775145.344      -4996495.053
10 0 59732  43830.000000  0       4548979.281       1666530.974      -5149754.146
10 0 59732  43860.000000  0       4415601.192       1556809.443      -5297784.440
10 0 59732  43890.000000  0       4277291.005       1446113.395      -5440436.277
10 0 59732  43920.000000  0       4134184.634       1334575.840      -5577565.466
10 0 59732  43950.000000  0       3986423.358       1222329.997      -5709033.424
10 0 59732  43980.000000  0       3834153.673       1109509.135      -5834707.310
10 0 59732  44010.000000  0       3677527.143        996246.420      -5954460.155
10 0 59732  44040.000000  0       3516700.241        882674.756      -6068170.980
10 0 59732  44070.000000  0       3351834.192        768926.636      -6175724.910
10 0 59732  44100.000000  0       3183094.811        655133.988      -6277013.278
10 0 59732  44130.000000  0       3010652.336        541428.028      -6371933.735
10 0 59732  44160.000000  0       2834681.253        427939.111      -6460390.342
10 0 59732  44190.000000  0       2655360.124        314796.583      -6542293.665
10 0 59732  44220.000000  0       2472871.399        202128.639      -6617560.852
10 0 59732  44250.000000  0       2287401.239         90062.181      -6686115.717
10 0 59732  44280.000000  0       2099139.331        -21277.322      -6747888.806
10 0 59732  44310.000000  0       1908278.693       -131765.976      -6802817.476
10 0 59732  44340.000000  0       1715015.478       -241281.593      -6850845.948
10 0 59732  44370.000000  0       1519548.774       -349703.827      -6891925.370
10 0 59732  44400.000000  0       1322080.394       -456914.304      -6926013.855
10 0 59732  44430.000000  0       1122814.673       -562796.750      -6953076.521
10 0 59732  44460.000000  0        921958.262       -667237.109      -6973085.524
10 0 59732  44490.000000  0        719719.913       -770123.670      -6986020.083
10 0 59732  44520.000000  0        516310.274       -871347.178      -6991866.501
10 0 59732  44550.000000  0        311941.670       -970800.952      -6990618.185
10 0 59732  44580.000000  0        106827.886      -1068380.992      -6982275.647
10 0 59732  44610.000000  0        -98816.048      -1163986.091      -6966846.512
10 0 59732  44640.000000  0       -304774.079      -1257517.935      -6944345.521
10 0 59732  44670.000000  0       -510829.359      -1348881.204      -6914794.512
10 0 59732  44700.000000  0       -716764.469      -1437983.674      -6878222.413
10 0 59732  44730.000000  0       -922361.643      -1524736.305      -6834665.209
10 0 59732  44760.000000  0      -1127402.999      -1609053.333      -6784165.917
10 0 59732  44790.000000  0      -1331670.763      -1690852.356      -6726774.550
10 0 59732  44820.000000  0      -1534947.502      -1770054.417      -6662548.070
10 0 59732  44850.000000  0      -1737016.351      -1846584.076      -6591550.339
10 0 59732  44880.000000  0      -1937661.241      -1920369.485      -6513852.058
10 0 59732  44910.000000  0      -2136667.127      -1991342.455      -6429530.713
10 0 59732  44940.000000  0      -2333820.215      -2059438.520      -6338670.498
10 0 59732  44970.000000  0      -2528908.191      -2124596.999      -6241362.253
10 0 59732  45000.000000  0      -2721720.452      -2186761.051      -6137703.374
10 0 59732  45030.000000  0      -2912048.333      -2245877.731      -6027797.733
10 0 59732  45060.000000  0      -3099685.338      -2301898.034      -5911755.581
10 0 59732  45090.000000  0      -3284427.366      -2354776.940      -5789693.450
10 0 59732  45120.000000  0      -3466072.941      -2404473.452      -5661734.046
10 0 59732  45150.000000  0      -3644423.434      -2450950.629      -5528006.129
10 0 59732  45180.000000  0      -3819283.291      -2494175.616      -5388644.395
10 0 59732  45210.000000  0      -3990460.245      -2534119.667      -5243789.345
10 0 59732  45240.000000  0      -4157765.537      -2570758.159      -5093587.156
10 0 59732  45270.000000  0      -4321014.129      -2604070.615      -4938189.535
10 0 59732  45300.000000  0      -4480024.919      -2634040.703      -4777753.579
10 0 59732  45330.000000  0      -4634620.944      -2660656.246      -4612441.620
10 0 59732  45360.000000  0      -4784629.588      -2683909.220      -4442421.070
10 0 59732  45390.000000  0      -4929882.788      -2703795.747      -4267864.251
10 0 59732  45420.000000  0      -5070217.224      -2720316.085      -4088948.235
10 0 59732  45450.000000  0      -5205474.521      -2733474.612      -3905854.655
10 0 59732  45480.000000  0      -5335501.428      -2743279.803      -3718769.537
10 0 59732  45510.000000  0      -5460150.012      -2749744.206      -3527883.101
10 0 59732  45540.000000  0      -5579277.829      -2752884.405      -3333389.578
10 0 59732  45570.000000  0      -5692748.102      -2752720.990      -3135487.007
10 0 59732  45600.000000  0      -5800429.880      -2749278.509      -2934377.033
10 0 59732  45630.000000  0      -5902198.208      -2742585.426      -2730264.702
10 0 59732  45660.000000  0      -5997934.270      -2732674.067      -2523358.251
10 0 59732  45690.000000  0      -6087525.547      -2719580.565      -2313868.892
10 0 59732  45720.000000  0      -6170865.953      -2703344.799      -2102010.595
10 0 59732  45750.000000  0      -6247855.972      -2684010.329      -1887999.863
10 0 59732  45780.000000  0      -6318402.783      -2661624.322      -1672055.506
10 0 59732  45810.000000  0      -6382420.381      -2636237.479      -1454398.407
10 0 59732  45840.000000  0      -6439829.688      -2607903.954      -1235251.297
10 0 59732  45870.000000  0      -6490558.652      -2576681.270      -1014838.513
10 0 59732  45900.000000  0      -6534542.342      -2542630.233       -793385.767
10 0 59732  45930.000000  0      -6571723.043      -2505814.835       -571119.904
10 0 59732  45960.000000  0      -6602050.325      -2466302.160       -348268.662
10 0 59732  45990.000000  0      -6625481.120      -2424162.286       -125060.429
10 0 59732  46020.000000  0      -6641979.783      -2379468.174         98275.998
10 0 59732  46050.000000  0      -6651518.141      -2332295.567        321511.663
10 0 59732  46080.000000  0      -6654075.538      -2282722.875        544417.690
10 0 59732  46110.000000  0      -6649638.872      -2230831.058        766765.532
10 0 59732  46140.000000  0      -6638202.613      -2176703.515        988327.214
10 0 59732  46170.000000  0      -6619768.825      -2120425.958       1208875.577
10 0 59732  46200.000000  0      -6594347.165      -2062086.293       1428184.523
10 0 59732  46230.000000  0      -6561954.883      -2001774.490       1646029.252
10 0 59732  46260.000000  0      -6522616.805      -1939582.462       1862186.504
10 0 59732  46290.000000  0      -6476365.318      -1875603.929       2076434.791
10 0 59732  46320.000000  0      -6423240.331      -1809934.290       2288554.635
10 0 59732  46350.000000  0      -6363289.247      -1742670.486       2498328.794
10 0 59732  46380.000000  0      -6296566.911      -1673910.870       2705542.494
10 0 59732  46410.000000  0      -6223135.555      -1603755.066       2909983.659
10 0 59732  46440.000000  0      -6143064.740      -1532303.836       3111443.130
10 0 59732  46470.000000  0      -6056431.271      -1459658.939       3309714.895
10 0 59732  46500.000000  0      -5963319.119      -1385922.992       3504596.296
10 0 59732  46530.000000  0      -5863819.324      -1311199.333       3695888.248
10 0 59732  46560.000000  0      -5758029.895      -1235591.876       3883395.435
10 0 59732  46590.000000  0      -5646055.699      -1159204.977       4066926.516
10 0 59732  46620.000000  0      -5528008.347      -1082143.291       4246294.312
10 0 59732  46650.000000  0      -5404006.077      -1004511.638       4421315.997
10 0 59732  46680.000000  0      -5274173.621       -926414.864       4591813.285
10 0 59732  46710.000000  0      -5138642.074       -847957.703       4757612.607
10 0 59732  46740.000000  0      -4997548.748       -769244.643       4918545.285
10 0 59732  46770.000000  0      -4851037.030       -690379.790       5074447.703
99
